[{"OBJECT_NAME":"UM5-RIBAT","OBJECT_ID":"2024-149CQ","EPOCH":"2026-03-09T19:05:41.327808","MEAN_MOTION":15.00468196,"ECCENTRICITY":0.00032721,"INCLINATION":97.6776,"RA_OF_ASC_NODE":147.9138,"ARG_OF_PERICENTER":87.0399,"MEAN_ANOMALY":273.1199,"EPHEMERIS_TYPE":0,"CLASSIFICATION_TYPE":"U","NORAD_CAT_ID":60554,"ELEMENT_SET_NO":999,"REV_AT_EPOCH":8528,"BSTAR":0.00037992942,"MEAN_MOTION_DOT":4.725e-5,"MEAN_MOTION_DDOT":0},{"OBJECT_NAME":"STARLINK-34697","OBJECT_ID":"2025-150B","EPOCH":"2026-03-09T12:29:02.092704","MEAN_MOTION":14.98326239,"ECCENTRICITY":0.00036415,"INCLINATION":70.0018,"RA_OF_ASC_NODE":134.7957,"ARG_OF_PERICENTER":269.2497,"MEAN_ANOMALY":90.8245,"EPHEMERIS_TYPE":0,"CLASSIFICATION_TYPE":"U","NORAD_CAT_ID":64791,"ELEMENT_SET_NO":999,"REV_AT_EPOCH":3649,"BSTAR":0.00024806161,"MEAN_MOTION_DOT":2.868e-5,"MEAN_MOTION_DDOT":0}]
